CARTOSAT-2E             
1 42767U 17036C   24213.59785007  .00008647  00000+0  41266-3 0  9992
2 42767  97.4355 272.2902 0005709 182.1014 178.0197 15.19290307394054
FORMOSAT-5              
1 42920U 17049A   24213.53390839  .00000424  00000+0  11839-3 0  9994
2 42920  98.2897 290.6212 0011484  39.6370 320.5662 14.51022000367252
SENTINEL-5P             
1 42969U 17064A   24213.59136283  .00000162  00000+0  97681-4 0  9990
2 42969  98.7217 152.1272 0001025  87.1982 272.9311 14.19552130352296
SKYSAT-C11              
1 42987U 17068A   24213.60551279  .00023865  00000+0  56666-3 0  9994
2 42987  97.3618 340.2259 0003656 137.9714 222.1814 15.41685858377483
SKYSAT-C10              
1 42988U 17068B   24213.31606377  .00017637  00000+0  60598-3 0  9992
2 42988  97.3702 339.0089 0007691 121.2183 238.9812 15.30143236377349
SKYSAT-C9               
1 42989U 17068C   24213.32135273  .00017475  00000+0  60143-3 0  9992
2 42989  97.3637 337.4228 0013864 147.0580 213.1528 15.30025692377535
SKYSAT-C8               
1 42990U 17068D   24213.59883565  .00015294  00000+0  52667-3 0  9996
2 42990  97.3731 338.7597 0003000  90.0517 270.1067 15.30125745377332
SKYSAT-C7               
1 42991U 17068E   24213.62154817  .00015993  00000+0  55036-3 0  9991
2 42991  97.3727 339.2080 0000280 177.1063 183.0180 15.30141209377365
SKYSAT-C6               
1 42992U 17068F   24213.62486224  .00015676  00000+0  53768-3 0  9990
2 42992  97.3758 340.2860 0002841 145.9894 214.1529 15.30250393377401
CARTOSAT-2F             
1 43111U 18004A   24213.56474796  .00008547  00000+0  40793-3 0  9992
2 43111  97.4290 272.3362 0002336 169.2259 190.9026 15.19300267363234
GAOFEN-1 02             
1 43259U 18031A   24213.56128738  .00001717  00000+0  25316-3 0  9993
2 43259  97.8182 279.6483 0004732  49.9441 310.2183 14.76571479341520
GAOFEN-1 03             
1 43260U 18031B   24213.60718220  .00001760  00000+0  25892-3 0  9998
2 43260  97.8176 279.6105 0006251 101.3003 258.8910 14.76620110341523
GAOFEN-1 04             
1 43262U 18031D   24213.58285849  .00001747  00000+0  25736-3 0  9995
2 43262  97.8185 279.6976 0005449  78.8135 281.3688 14.76577280341514
SENTINEL-3B             
1 43437U 18039A   24213.59987622  .00000265  00000+0  12760-3 0  9993
2 43437  98.6261 279.8907 0001531  99.1461 260.9893 14.26734125326369
GAOFEN-5 01             
1 43461U 18043A   24213.57334963  .00000959  00000+0  21327-3 0  9996
2 43461  98.3579 164.3138 0002967  64.2485 295.9020 14.59245964331643
GAOFEN-6                
1 43484U 18048A   24213.08153548  .00001723  00000+0  25350-3 0  9990
2 43484  97.8618 286.3178 0010164 226.1854 133.8516 14.76644886332143
GAOFEN-11 01            
1 43585U 18063A   24213.59937542  .00011678  00000+0  38339-3 0  9990
2 43585  97.2295 278.3895 0006533 317.5741  42.4995 15.31717069334551
ICESAT-2                
1 43613U 18070A   24213.59116587  .00018428  00000+0  66847-3 0  9993
2 43613  91.9983 106.6002 0004082 233.9776 126.1095 15.28275673327758
HYSIS                   
1 43719U 18096A   24213.58006429  .00002512  00000+0  34952-3 0  9999
2 43719  97.8636 276.4914 0001712 147.2702 212.8615 14.78669598306100
KAZSTSAT                
1 43783U 18099AB  24213.57653644  .00001776  00000+0  16044-3 0  9992
2 43783  97.5249 262.9293 0007201 179.8492 180.2734 14.96685705308621
SAUDISAT 5A             
1 43831U 18102A   24213.59204393  .00007425  00000+0  38299-3 0  9999
2 43831  97.4059 278.1704 0012750  31.4646 328.7347 15.16562836311320
SAUDISAT 5B             
1 43833U 18102C   24213.61133004  .00006979  00000+0  35369-3 0  9992
2 43833  97.4107 280.0810 0013577  34.7885 325.4233 15.17197769311413
GAOFEN-10R              
1 44622U 19066A   24213.32005296  .00003335  00000+0  42747-3 0  9999
2 44622  97.9651 155.0469 0002236  97.9264 262.2202 14.81945468260753
CARTOSAT-3              
1 44804U 19081A   24213.57029728  .00007802  00000+0  37372-3 0  9992
2 44804  97.5302 271.2153 0011530  30.6042 329.5863 15.19157482259379
GAOFEN-12 01            
1 44819U 19082A   24213.57317368  .00000997  00000+0  13488-3 0  9999
2 44819  97.8235 226.6271 0002658  78.5962 281.5549 14.81136465252648
CSG-1                   
1 44873U 19092A   24213.54938659  .00001146  00000+0  15053-3 0  9996
2 44873  97.8881  36.0453 0001164  80.3603 279.7741 14.82157717249917
NUSAT-6 (HYPATIA)       
1 46272U 20061A   24213.52593136  .00153489  00000+0  10607-2 0  9991
2 46272  97.2256 289.2688 0003466 189.3159 170.8042 15.74081496218437
NEMO-HD                 
1 46277U 20061F   24213.57156523  .00009281  00000+0  35233-3 0  9999
2 46277  97.2948 275.2609 0001589  50.8664 309.2716 15.27046475216716
SENTINEL-6              
1 46984U 20086A   24213.42263993 -.00000070  00000+0 -39745-4 0  9997
2 46984  66.0416 119.3952 0007819 269.9557  90.0562 12.80930121172496
GAOFEN-12 02            
1 48079U 21026A   24213.56245932  .00001032  00000+0  13957-3 0  9990
2 48079  97.9524 204.8856 0001560 105.5989 254.5395 14.81142801180314
PLEIADES NEO 3          
1 48268U 21034A   24213.59602037  .00002509  00000+0  32517-3 0  9998
2 48268  97.8955 287.2003 0001505  97.0245 263.1139 14.81691947176136
NUSAT-19 (ROSALIND)     
1 48905U 21059AC  24213.56212606  .00080613  00000+0  99071-3 0  9999
2 48905  97.5925   8.6574 0004810 210.2967 149.8011 15.60001552172745
PLEIADES NEO 4          
1 49070U 21073E   24213.56222780  .00002587  00000+0  33519-3 0  9992
2 49070  97.8947 287.1615 0001319  89.8825 270.2539 14.81680289159842
LANDSAT 9               
1 49260U 21088A   24213.46270377  .00000909  00000+0  21189-3 0  9999
2 49260  98.2297 282.5069 0001415  90.0415 270.0945 14.57102254151142
CSG-2                   
1 51444U 22008A   24213.58310166  .00000837  00000+0  11162-3 0  9993
2 51444  97.8879  36.0728 0001513  91.0368 269.1018 14.82168023135035
INS-2TD                 
1 51658U 22013C   24213.56240389  .00070015  00000+0  12044-2 0  9997
2 51658  97.5152 238.5960 0002945  26.3350 333.8051 15.50864947136864
GAOFEN-12 03            
1 52912U 22069A   24213.60081506  .00002922  00000+0  38041-3 0  9999
2 52912  97.9054 104.0472 0004674  20.3347 339.8051 14.81383126113183
SWOT                    
1 54754U 22173A   24213.52771018  .00000122  00000+0  84163-4 0  9993
2 54754  77.6080 240.8753 0000247 161.7727 198.3434 14.00172867 83197
GAOFEN-12 04            
1 57654U 23123A   24213.56890812  .00002688  00000+0  35111-3 0  9996
2 57654  97.9078 130.4374 0006382  59.9390 300.2455 14.81295876 51191
PARS 1                  
1 59065U 24039Q   24213.55503601  .00010081  00000+0  38494-3 0  9990
2 59065  97.3956 175.0936 0015869  58.0114 302.2664 15.26718763 23346
RESURS-P 4              
1 59371U 24061A   24213.57592384  .00006395  00000+0  20090-3 0  9999
2 59371  97.1875 165.4064 0001782  72.7484 287.3953 15.33333284 18720
ALOS-4 (DAICHI-4)       
1 60182U 24123A   24213.56435364  .00003867  00000+0  52452-3 0  9991
2 60182  97.9216 309.5911 0001484 107.2832 252.8542 14.79462103  4505
